<?xml version="1.0" encoding="UTF-8"?>
<ndm xmlns:xsi="http://www.w3.org/2001/XMLSchema-instance" xsi:noNamespaceSchemaLocation="https://sanaregistry.org/r/ndmxml_unqualified/ndmxml-2.0.0-master-2.0.xsd">
<omm id="CCSDS_OMM_VERS" version="2.0">
<header><CREATION_DATE/><ORIGINATOR/></header><body><segment><metadata><OBJECT_NAME>ONEWEB-0346</OBJECT_NAME><OBJECT_ID>2021-083AC</OBJECT_ID><CENTER_NAME>EARTH</CENTER_NAME><REF_FRAME>TEME</REF_FRAME><TIME_SYSTEM>UTC</TIME_SYSTEM><MEAN_ELEMENT_THEORY>SGP4</MEAN_ELEMENT_THEORY></metadata><data><meanElements><EPOCH>2024-03-22T17:10:36.956064</EPOCH><MEAN_MOTION>13.18684005</MEAN_MOTION><ECCENTRICITY>.0002484</ECCENTRICITY><INCLINATION>87.9180</INCLINATION><RA_OF_ASC_NODE>137.9944</RA_OF_ASC_NODE><ARG_OF_PERICENTER>101.3385</ARG_OF_PERICENTER><MEAN_ANOMALY>258.8026</MEAN_ANOMALY></meanElements><tleParameters><EPHEMERIS_TYPE>0</EPHEMERIS_TYPE><CLASSIFICATION_TYPE>U</CLASSIFICATION_TYPE><NORAD_CAT_ID>49212</NORAD_CAT_ID><ELEMENT_SET_NO>999</ELEMENT_SET_NO><REV_AT_EPOCH>12237</REV_AT_EPOCH><BSTAR>.51461E-4</BSTAR><MEAN_MOTION_DOT>.33E-6</MEAN_MOTION_DOT><MEAN_MOTION_DDOT>0</MEAN_MOTION_DDOT></tleParameters></data></segment></body></omm>
<omm id="CCSDS_OMM_VERS" version="2.0">
<header><CREATION_DATE/><ORIGINATOR/></header><body><segment><metadata><OBJECT_NAME>ONEWEB-0348</OBJECT_NAME><OBJECT_ID>2021-083AD</OBJECT_ID><CENTER_NAME>EARTH</CENTER_NAME><REF_FRAME>TEME</REF_FRAME><TIME_SYSTEM>UTC</TIME_SYSTEM><MEAN_ELEMENT_THEORY>SGP4</MEAN_ELEMENT_THEORY></metadata><data><meanElements><EPOCH>2024-03-22T21:51:04.004064</EPOCH><MEAN_MOTION>13.20774007</MEAN_MOTION><ECCENTRICITY>.0002462</ECCENTRICITY><INCLINATION>87.9135</INCLINATION><RA_OF_ASC_NODE>76.8819</RA_OF_ASC_NODE><ARG_OF_PERICENTER>101.9556</ARG_OF_PERICENTER><MEAN_ANOMALY>258.1853</MEAN_ANOMALY></meanElements><tleParameters><EPHEMERIS_TYPE>0</EPHEMERIS_TYPE><CLASSIFICATION_TYPE>U</CLASSIFICATION_TYPE><NORAD_CAT_ID>49213</NORAD_CAT_ID><ELEMENT_SET_NO>999</ELEMENT_SET_NO><REV_AT_EPOCH>12906</REV_AT_EPOCH><BSTAR>.24387E-3</BSTAR><MEAN_MOTION_DOT>.112E-5</MEAN_MOTION_DOT><MEAN_MOTION_DDOT>0</MEAN_MOTION_DDOT></tleParameters></data></segment></body></omm>
<omm id="CCSDS_OMM_VERS" version="2.0">
<header><CREATION_DATE/><ORIGINATOR/></header><body><segment><metadata><OBJECT_NAME>ONEWEB-0350</OBJECT_NAME><OBJECT_ID>2021-083AE</OBJECT_ID><CENTER_NAME>EARTH</CENTER_NAME><REF_FRAME>TEME</REF_FRAME><TIME_SYSTEM>UTC</TIME_SYSTEM><MEAN_ELEMENT_THEORY>SGP4</MEAN_ELEMENT_THEORY></metadata><data><meanElements><EPOCH>2024-03-23T02:31:53.153184</EPOCH><MEAN_MOTION>13.13469356</MEAN_MOTION><ECCENTRICITY>.0002154</ECCENTRICITY><INCLINATION>87.8923</INCLINATION><RA_OF_ASC_NODE>122.6791</RA_OF_ASC_NODE><ARG_OF_PERICENTER>106.3427</ARG_OF_PERICENTER><MEAN_ANOMALY>253.7939</MEAN_ANOMALY></meanElements><tleParameters><EPHEMERIS_TYPE>0</EPHEMERIS_TYPE><CLASSIFICATION_TYPE>U</CLASSIFICATION_TYPE><NORAD_CAT_ID>49214</NORAD_CAT_ID><ELEMENT_SET_NO>999</ELEMENT_SET_NO><REV_AT_EPOCH>12510</REV_AT_EPOCH><BSTAR>.11188E-2</BSTAR><MEAN_MOTION_DOT>.421E-5</MEAN_MOTION_DOT><MEAN_MOTION_DDOT>0</MEAN_MOTION_DDOT></tleParameters></data></segment></body></omm>
<omm id="CCSDS_OMM_VERS" version="2.0">
<header><CREATION_DATE/><ORIGINATOR/></header><body><segment><metadata><OBJECT_NAME>ONEWEB-0351</OBJECT_NAME><OBJECT_ID>2021-083AF</OBJECT_ID><CENTER_NAME>EARTH</CENTER_NAME><REF_FRAME>TEME</REF_FRAME><TIME_SYSTEM>UTC</TIME_SYSTEM><MEAN_ELEMENT_THEORY>SGP4</MEAN_ELEMENT_THEORY></metadata><data><meanElements><EPOCH>2024-03-22T23:31:03.792864</EPOCH><MEAN_MOTION>13.20770226</MEAN_MOTION><ECCENTRICITY>.0001297</ECCENTRICITY><INCLINATION>87.9130</INCLINATION><RA_OF_ASC_NODE>76.8710</RA_OF_ASC_NODE><ARG_OF_PERICENTER>59.7082</ARG_OF_PERICENTER><MEAN_ANOMALY>300.4179</MEAN_ANOMALY></meanElements><tleParameters><EPHEMERIS_TYPE>0</EPHEMERIS_TYPE><CLASSIFICATION_TYPE>U</CLASSIFICATION_TYPE><NORAD_CAT_ID>49215</NORAD_CAT_ID><ELEMENT_SET_NO>999</ELEMENT_SET_NO><REV_AT_EPOCH>13034</REV_AT_EPOCH><BSTAR>.11085E-3</BSTAR><MEAN_MOTION_DOT>.58E-6</MEAN_MOTION_DOT><MEAN_MOTION_DDOT>0</MEAN_MOTION_DDOT></tleParameters></data></segment></body></omm>
<omm id="CCSDS_OMM_VERS" version="2.0">
<header><CREATION_DATE/><ORIGINATOR/></header><body><segment><metadata><OBJECT_NAME>ONEWEB-0352</OBJECT_NAME><OBJECT_ID>2021-083AG</OBJECT_ID><CENTER_NAME>EARTH</CENTER_NAME><REF_FRAME>TEME</REF_FRAME><TIME_SYSTEM>UTC</TIME_SYSTEM><MEAN_ELEMENT_THEORY>SGP4</MEAN_ELEMENT_THEORY></metadata><data><meanElements><EPOCH>2024-03-22T15:06:17.383104</EPOCH><MEAN_MOTION>13.13469453</MEAN_MOTION><ECCENTRICITY>.0001699</ECCENTRICITY><INCLINATION>87.8927</INCLINATION><RA_OF_ASC_NODE>122.8022</RA_OF_ASC_NODE><ARG_OF_PERICENTER>95.3040</ARG_OF_PERICENTER><MEAN_ANOMALY>264.8283</MEAN_ANOMALY></meanElements><tleParameters><EPHEMERIS_TYPE>0</EPHEMERIS_TYPE><CLASSIFICATION_TYPE>U</CLASSIFICATION_TYPE><NORAD_CAT_ID>49216</NORAD_CAT_ID><ELEMENT_SET_NO>999</ELEMENT_SET_NO><REV_AT_EPOCH>12383</REV_AT_EPOCH><BSTAR>.70341E-3</BSTAR><MEAN_MOTION_DOT>.27E-5</MEAN_MOTION_DOT><MEAN_MOTION_DDOT>0</MEAN_MOTION_DDOT></tleParameters></data></segment></body></omm>
<omm id="CCSDS_OMM_VERS" version="2.0">
<header><CREATION_DATE/><ORIGINATOR/></header><body><segment><metadata><OBJECT_NAME>ONEWEB-0354</OBJECT_NAME><OBJECT_ID>2021-083AH</OBJECT_ID><CENTER_NAME>EARTH</CENTER_NAME><REF_FRAME>TEME</REF_FRAME><TIME_SYSTEM>UTC</TIME_SYSTEM><MEAN_ELEMENT_THEORY>SGP4</MEAN_ELEMENT_THEORY></metadata><data><meanElements><EPOCH>2024-03-22T22:18:20.695680</EPOCH><MEAN_MOTION>13.20773393</MEAN_MOTION><ECCENTRICITY>.000184</ECCENTRICITY><INCLINATION>87.9134</INCLINATION><RA_OF_ASC_NODE>76.8631</RA_OF_ASC_NODE><ARG_OF_PERICENTER>99.4184</ARG_OF_PERICENTER><MEAN_ANOMALY>260.7158</MEAN_ANOMALY></meanElements><tleParameters><EPHEMERIS_TYPE>0</EPHEMERIS_TYPE><CLASSIFICATION_TYPE>U</CLASSIFICATION_TYPE><NORAD_CAT_ID>49217</NORAD_CAT_ID><ELEMENT_SET_NO>999</ELEMENT_SET_NO><REV_AT_EPOCH>12906</REV_AT_EPOCH><BSTAR>.22807E-3</BSTAR><MEAN_MOTION_DOT>.106E-5</MEAN_MOTION_DOT><MEAN_MOTION_DDOT>0</MEAN_MOTION_DDOT></tleParameters></data></segment></body></omm>

</ndm>
