ONEWEB-0346             
1 49212U 21083AC  24082.71570551  .00000033  00000+0  51461-4 0  9995
2 49212  87.9180 137.9944 0002484 101.3385 258.8026 13.18684005122371
ONEWEB-0348             
1 49213U 21083AD  24082.91046301  .00000112  00000+0  24387-3 0  9993
2 49213  87.9135  76.8819 0002462 101.9556 258.1853 13.20774007129065
ONEWEB-0350             
1 49214U 21083AE  24083.10547631  .00000421  00000+0  11188-2 0  9995
2 49214  87.8923 122.6791 0002154 106.3427 253.7939 13.13469356125100
ONEWEB-0351             
1 49215U 21083AF  24082.97990501  .00000058  00000+0  11085-3 0  9991
2 49215  87.9130  76.8710 0001297  59.7082 300.4179 13.20770226130345
ONEWEB-0352             
1 49216U 21083AG  24082.62936786  .00000270  00000+0  70341-3 0  9995
2 49216  87.8927 122.8022 0001699  95.3040 264.8283 13.13469453123837
ONEWEB-0354             
1 49217U 21083AH  24082.92940620  .00000106  00000+0  22807-3 0  9993
2 49217  87.9134  76.8631 0001840  99.4184 260.7158 13.20773393129061
